[{"OBJECT_NAME":"TDRS 3","OBJECT_ID":"1988-091B","EPOCH":"2026-04-05T12:30:48.809664","MEAN_MOTION":1.00267327,"ECCENTRICITY":0.00420964,"INCLINATION":12.6573,"RA_OF_ASC_NODE":341.4807,"ARG_OF_PERICENTER":356.2277,"MEAN_ANOMALY":354.785,"EPHEMERIS_TYPE":0,"CLASSIFICATION_TYPE":"U","NORAD_CAT_ID":19548,"ELEMENT_SET_NO":999,"REV_AT_EPOCH":12465,"BSTAR":0,"MEAN_MOTION_DOT":-2.98e-6,"MEAN_MOTION_DDOT":0},{"OBJECT_NAME":"FLTSATCOM 8 (USA 46)","OBJECT_ID":"1989-077A","EPOCH":"2026-04-05T13:58:26.783616","MEAN_MOTION":1.0027097,"ECCENTRICITY":0.00079369,"INCLINATION":12.4419,"RA_OF_ASC_NODE":351.6,"ARG_OF_PERICENTER":358.3832,"MEAN_ANOMALY":179.2827,"EPHEMERIS_TYPE":0,"CLASSIFICATION_TYPE":"U","NORAD_CAT_ID":20253,"ELEMENT_SET_NO":999,"REV_AT_EPOCH":25983,"BSTAR":0,"MEAN_MOTION_DOT":-3.65e-6,"MEAN_MOTION_DDOT":0},{"OBJECT_NAME":"SKYNET 4C","OBJECT_ID":"1990-079A","EPOCH":"2026-04-04T19:47:30.899616","MEAN_MOTION":1.00277012,"ECCENTRICITY":0.00034699,"INCLINATION":13.3636,"RA_OF_ASC_NODE":350.3148,"ARG_OF_PERICENTER":18.3144,"MEAN_ANOMALY":154.7866,"EPHEMERIS_TYPE":0,"CLASSIFICATION_TYPE":"U","NORAD_CAT_ID":20776,"ELEMENT_SET_NO":999,"REV_AT_EPOCH":13015,"BSTAR":0,"MEAN_MOTION_DOT":1.27e-6,"MEAN_MOTION_DDOT":0},{"OBJECT_NAME":"TDRS 5","OBJECT_ID":"1991-054B","EPOCH":"2026-04-05T10:25:38.525088","MEAN_MOTION":1.00279773,"ECCENTRICITY":0.0008517,"INCLINATION":14.0808,"RA_OF_ASC_NODE":354.3167,"ARG_OF_PERICENTER":279.2819,"MEAN_ANOMALY":269.0253,"EPHEMERIS_TYPE":0,"CLASSIFICATION_TYPE":"U","NORAD_CAT_ID":21639,"ELEMENT_SET_NO":999,"REV_AT_EPOCH":12698,"BSTAR":0,"MEAN_MOTION_DOT":8.6e-7,"MEAN_MOTION_DDOT":0},{"OBJECT_NAME":"TDRS 6","OBJECT_ID":"1993-003B","EPOCH":"2026-04-05T05:42:45.372096","MEAN_MOTION":1.00267173,"ECCENTRICITY":0.0005106,"INCLINATION":14.182,"RA_OF_ASC_NODE":357.6013,"ARG_OF_PERICENTER":182.3645,"MEAN_ANOMALY":53.3177,"EPHEMERIS_TYPE":0,"CLASSIFICATION_TYPE":"U","NORAD_CAT_ID":22314,"ELEMENT_SET_NO":999,"REV_AT_EPOCH":12167,"BSTAR":0,"MEAN_MOTION_DOT":-2.95e-6,"MEAN_MOTION_DDOT":0},{"OBJECT_NAME":"UFO 2 (USA 95)","OBJECT_ID":"1993-056A","EPOCH":"2026-04-04T21:28:46.843104","MEAN_MOTION":1.00268061,"ECCENTRICITY":0.00090335,"INCLINATION":11.8672,"RA_OF_ASC_NODE":3.9494,"ARG_OF_PERICENTER":294.0669,"MEAN_ANOMALY":246.1287,"EPHEMERIS_TYPE":0,"CLASSIFICATION_TYPE":"U","NORAD_CAT_ID":22787,"ELEMENT_SET_NO":999,"REV_AT_EPOCH":11781,"BSTAR":0,"MEAN_MOTION_DOT":1.26e-6,"MEAN_MOTION_DDOT":0},{"OBJECT_NAME":"USA 99 (MILSTAR-1 1)","OBJECT_ID":"1994-009A","EPOCH":"2026-04-05T07:51:38.656800","MEAN_MOTION":1.00272757,"ECCENTRICITY":0.00039358,"INCLINATION":17.51,"RA_OF_ASC_NODE":28.4954,"ARG_OF_PERICENTER":337.4361,"MEAN_ANOMALY":215.6317,"EPHEMERIS_TYPE":0,"CLASSIFICATION_TYPE":"U","NORAD_CAT_ID":22988,"ELEMENT_SET_NO":999,"REV_AT_EPOCH":3222,"BSTAR":0,"MEAN_MOTION_DOT":-1.97e-6,"MEAN_MOTION_DDOT":0},{"OBJECT_NAME":"UFO 4 (USA 108)","OBJECT_ID":"1995-003A","EPOCH":"2026-04-05T13:10:38.867808","MEAN_MOTION":1.00269553,"ECCENTRICITY":0.00034661,"INCLINATION":9.6978,"RA_OF_ASC_NODE":13.4689,"ARG_OF_PERICENTER":355.0724,"MEAN_ANOMALY":195.3251,"EPHEMERIS_TYPE":0,"CLASSIFICATION_TYPE":"U","NORAD_CAT_ID":23467,"ELEMENT_SET_NO":999,"REV_AT_EPOCH":11422,"BSTAR":0,"MEAN_MOTION_DOT":-2.0e-7,"MEAN_MOTION_DDOT":0},{"OBJECT_NAME":"TDRS 7","OBJECT_ID":"1995-035B","EPOCH":"2026-04-05T14:11:05.678880","MEAN_MOTION":1.00268025,"ECCENTRICITY":0.00093679,"INCLINATION":13.4077,"RA_OF_ASC_NODE":348.6894,"ARG_OF_PERICENTER":55.7255,"MEAN_ANOMALY":91.2155,"EPHEMERIS_TYPE":0,"CLASSIFICATION_TYPE":"U","NORAD_CAT_ID":23613,"ELEMENT_SET_NO":999,"REV_AT_EPOCH":11252,"BSTAR":0,"MEAN_MOTION_DOT":-2.36e-6,"MEAN_MOTION_DDOT":0},{"OBJECT_NAME":"USA 115 (MILSTAR-1 2)","OBJECT_ID":"1995-060A","EPOCH":"2026-04-01T10:05:27.602304","MEAN_MOTION":1.00275542,"ECCENTRICITY":0.00039388,"INCLINATION":14.0463,"RA_OF_ASC_NODE":4.3204,"ARG_OF_PERICENTER":354.5502,"MEAN_ANOMALY":222.3022,"EPHEMERIS_TYPE":0,"CLASSIFICATION_TYPE":"U","NORAD_CAT_ID":23712,"ELEMENT_SET_NO":999,"REV_AT_EPOCH":3211,"BSTAR":0,"MEAN_MOTION_DOT":-2.7e-7,"MEAN_MOTION_DDOT":0},{"OBJECT_NAME":"INMARSAT 3-F1","OBJECT_ID":"1996-020A","EPOCH":"2026-04-05T04:05:20.763744","MEAN_MOTION":1.00000378,"ECCENTRICITY":0.00046959,"INCLINATION":10.4516,"RA_OF_ASC_NODE":47.2944,"ARG_OF_PERICENTER":304.0486,"MEAN_ANOMALY":242.6303,"EPHEMERIS_TYPE":0,"CLASSIFICATION_TYPE":"U","NORAD_CAT_ID":23839,"ELEMENT_SET_NO":999,"REV_AT_EPOCH":10952,"BSTAR":0,"MEAN_MOTION_DOT":-2.04e-6,"MEAN_MOTION_DDOT":0},{"OBJECT_NAME":"INMARSAT 3-F2","OBJECT_ID":"1996-053A","EPOCH":"2026-04-05T12:44:38.685120","MEAN_MOTION":0.99985096,"ECCENTRICITY":0.00064015,"INCLINATION":9.6945,"RA_OF_ASC_NODE":54.6629,"ARG_OF_PERICENTER":324.6477,"MEAN_ANOMALY":226.703,"EPHEMERIS_TYPE":0,"CLASSIFICATION_TYPE":"U","NORAD_CAT_ID":24307,"ELEMENT_SET_NO":999,"REV_AT_EPOCH":10819,"BSTAR":0,"MEAN_MOTION_DOT":1.12e-6,"MEAN_MOTION_DDOT":0},{"OBJECT_NAME":"INMARSAT 3-F3","OBJECT_ID":"1996-070A","EPOCH":"2026-04-05T13:51:36.802656","MEAN_MOTION":0.99988629,"ECCENTRICITY":0.0005546,"INCLINATION":10.1635,"RA_OF_ASC_NODE":50.3341,"ARG_OF_PERICENTER":299.6766,"MEAN_ANOMALY":171.0975,"EPHEMERIS_TYPE":0,"CLASSIFICATION_TYPE":"U","NORAD_CAT_ID":24674,"ELEMENT_SET_NO":999,"REV_AT_EPOCH":10718,"BSTAR":0,"MEAN_MOTION_DOT":-3.52e-6,"MEAN_MOTION_DDOT":0},{"OBJECT_NAME":"AMC-3","OBJECT_ID":"1997-050A","EPOCH":"2026-04-05T08:39:38.507904","MEAN_MOTION":1.00271324,"ECCENTRICITY":0.0003288,"INCLINATION":7.9685,"RA_OF_ASC_NODE":64.9035,"ARG_OF_PERICENTER":309.8504,"MEAN_ANOMALY":236.8131,"EPHEMERIS_TYPE":0,"CLASSIFICATION_TYPE":"U","NORAD_CAT_ID":24936,"ELEMENT_SET_NO":999,"REV_AT_EPOCH":5170,"BSTAR":0,"MEAN_MOTION_DOT":-2.58e-6,"MEAN_MOTION_DDOT":0},{"OBJECT_NAME":"USA 134","OBJECT_ID":"1997-065A","EPOCH":"2026-04-05T08:15:38.702016","MEAN_MOTION":1.00271571,"ECCENTRICITY":0.00062991,"INCLINATION":12.699,"RA_OF_ASC_NODE":22.2626,"ARG_OF_PERICENTER":323.6712,"MEAN_ANOMALY":219.1739,"EPHEMERIS_TYPE":0,"CLASSIFICATION_TYPE":"U","NORAD_CAT_ID":25019,"ELEMENT_SET_NO":999,"REV_AT_EPOCH":3222,"BSTAR":0,"MEAN_MOTION_DOT":-6.0e-7,"MEAN_MOTION_DDOT":0},{"OBJECT_NAME":"INMARSAT 3-F5","OBJECT_ID":"1998-006B","EPOCH":"2026-04-05T07:46:59.448288","MEAN_MOTION":1.00272572,"ECCENTRICITY":0.000535,"INCLINATION":9.5321,"RA_OF_ASC_NODE":53.9686,"ARG_OF_PERICENTER":324.622,"MEAN_ANOMALY":237.8069,"EPHEMERIS_TYPE":0,"CLASSIFICATION_TYPE":"U","NORAD_CAT_ID":25153,"ELEMENT_SET_NO":999,"REV_AT_EPOCH":10316,"BSTAR":0,"MEAN_MOTION_DOT":-2.88e-6,"MEAN_MOTION_DDOT":0},{"OBJECT_NAME":"ABS-6","OBJECT_ID":"1999-053A","EPOCH":"2026-04-05T09:21:11.814048","MEAN_MOTION":1.00271971,"ECCENTRICITY":0.00029822,"INCLINATION":0.0488,"RA_OF_ASC_NODE":91.2039,"ARG_OF_PERICENTER":304.8212,"MEAN_ANOMALY":96.9536,"EPHEMERIS_TYPE":0,"CLASSIFICATION_TYPE":"U","NORAD_CAT_ID":25924,"ELEMENT_SET_NO":999,"REV_AT_EPOCH":9711,"BSTAR":0,"MEAN_MOTION_DOT":-1.18e-6,"MEAN_MOTION_DDOT":0}]
