TDRS 3                  
1 19548U 88091B   26095.52139826 -.00000298  00000+0  00000+0 0  9999
2 19548  12.6573 341.4807 0042096 356.2277 354.7850  1.00267327124651
FLTSATCOM 8 (USA 46)    
1 20253U 89077A   26095.58225444 -.00000365  00000+0  00000+0 0  9992
2 20253  12.4419 351.6000 0007936 358.3832 179.2827  1.00270970259836
SKYNET 4C               
1 20776U 90079A   26094.82466319  .00000127  00000+0  00000+0 0  9995
2 20776  13.3636 350.3148 0003469  18.3144 154.7866  1.00277012130150
TDRS 5                  
1 21639U 91054B   26095.43447367  .00000086  00000+0  00000+0 0  9992
2 21639  14.0808 354.3167 0008517 279.2819 269.0253  1.00279773126981
TDRS 6                  
1 22314U 93003B   26095.23802514 -.00000295  00000+0  00000+0 0  9999
2 22314  14.1820 357.6013 0005106 182.3645  53.3177  1.00267173121676
UFO 2 (USA 95)          
1 22787U 93056A   26094.89498661  .00000126  00000+0  00000+0 0  9998
2 22787  11.8672   3.9494 0009033 294.0669 246.1287  1.00268061117815
USA 99 (MILSTAR-1 1)    
1 22988U 94009A   26095.32753075 -.00000197  00000+0  00000+0 0  9991
2 22988  17.5100  28.4954 0003935 337.4361 215.6317  1.00272757 32229
UFO 4 (USA 108)         
1 23467U 95003A   26095.54906097 -.00000020  00000+0  00000+0 0  9992
2 23467   9.6978  13.4689 0003466 355.0724 195.3251  1.00269553114226
TDRS 7                  
1 23613U 95035B   26095.59103795 -.00000236  00000+0  00000+0 0  9998
2 23613  13.4077 348.6894 0009367  55.7255  91.2155  1.00268025112523
USA 115 (MILSTAR-1 2)   
1 23712U 95060A   26091.42045836 -.00000027  00000+0  00000+0 0  9993
2 23712  14.0463   4.3204 0003938 354.5502 222.3022  1.00275542 32111
INMARSAT 3-F1           
1 23839U 96020A   26095.17037921 -.00000204  00000+0  00000+0 0  9999
2 23839  10.4516  47.2944 0004695 304.0486 242.6303  1.00000378109529
INMARSAT 3-F2           
1 24307U 96053A   26095.53100330  .00000112  00000+0  00000+0 0  9998
2 24307   9.6945  54.6629 0006401 324.6477 226.7030  0.99985096108191
INMARSAT 3-F3           
1 24674U 96070A   26095.57750929 -.00000352  00000+0  00000+0 0  9990
2 24674  10.1635  50.3341 0005546 299.6766 171.0975  0.99988629107189
AMC-3                   
1 24936U 97050A   26095.36086236 -.00000258  00000+0  00000+0 0  9995
2 24936   7.9685  64.9035 0003288 309.8504 236.8131  1.00271324 51705
USA 134                 
1 25019U 97065A   26095.34419794 -.00000060  00000+0  00000+0 0  9992
2 25019  12.6990  22.2626 0006299 323.6712 219.1739  1.00271571 32221
INMARSAT 3-F5           
1 25153U 98006B   26095.32429917 -.00000288  00000+0  00000+0 0  9995
2 25153   9.5321  53.9686 0005350 324.6220 237.8069  1.00272572103169
ABS-6                   
1 25924U 99053A   26095.38972007 -.00000118  00000+0  00000+0 0  9995
2 25924   0.0488  91.2039 0002982 304.8212  96.9536  1.00271971 97113
